{"type": "FeatureCollection", "features": [ {"type": "Feature", "properties": {"norad_id": 66474, "name": "STARLINK-35620", "group": "last-30-days", "lat": 40.37160541442804, "lon": 131.54131760280413, "alt_km": 406.6824733139629, "timestamp": "2025-12-13T15:35:10.875210+00:00", "meta": {"OBJECT_NAME": "STARLINK-35620", "OBJECT_ID": "2025-262U", "EPOCH": "2025-12-12T13:00:34.651008", "MEAN_MOTION": 15.51135131, "ECCENTRICITY": 0.00014651, "INCLINATION": 43.0009, "RA_OF_ASC_NODE": 72.1929, "ARG_OF_PERICENTER": 279.0822, "MEAN_ANOMALY": 80.9873, "EPHEMERIS_TYPE": 0, "CLASSIFICATION_TYPE": "U", "NORAD_CAT_ID": 66474, "ELEMENT_SET_NO": 999, "REV_AT_EPOCH": 553, "BSTAR": 0.0027986206, "MEAN_MOTION_DOT": 0.00170828, "MEAN_MOTION_DDOT": 0}, "tle": {"line1": "1 66474U 25262U   25346.54206772  .00170828  00000+0  27986-2 0  9996", "line2": "2 66474  43.0009  72.1929 0001465 279.0822  80.9873 15.51135131  5535"}}, "geometry": {"type": "Point", "coordinates": [131.54131760280413, 40.37160541442804]}}, {"type": "Feature", "properties": {"norad_id": 66475, "name": "STARLINK-35538", "group": "last-30-days", "lat": 25.230951482438815, "lon": 96.17021692035284, "alt_km": 436.83305653331354, "timestamp": "2025-12-13T15:35:10.875220+00:00", "meta": {"OBJECT_NAME": "STARLINK-35538", "OBJECT_ID": "2025-262V", "EPOCH": "2025-12-12T20:00:01.999872", "MEAN_MOTION": 15.45507861, "ECCENTRICITY": 9.881e-05, "INCLINATION": 42.9997, "RA_OF_ASC_NODE": 70.5177, "ARG_OF_PERICENTER": 283.1688, "MEAN_ANOMALY": 254.9926, "EPHEMERIS_TYPE": 0, "CLASSIFICATION_TYPE": "U", "NORAD_CAT_ID": 66475, "ELEMENT_SET_NO": 999, "REV_AT_EPOCH": 565, "BSTAR": -0.047082155, "MEAN_MOTION_DOT": -0.02055951, "MEAN_MOTION_DDOT": 0}, "tle": {"line1": "1 66475U 25262V   25346.83335648 -.02055951  00000+0 -47082-1 0  9995", "line2": "2 66475  42.9997  70.5177 0000988 283.1688 254.9926 15.45507861  5653"}}, "geometry": {"type": "Point", "coordinates": [96.17021692035284, 25.230951482438815]}}, {"type": "Feature", "properties": {"norad_id": 66476, "name": "STARLINK-35372", "group": "last-30-days", "lat": 41.08193632971335, "lon": 135.01748979120757, "alt_km": 421.7221287542134, "timestamp": "2025-12-13T15:35:10.875231+00:00", "meta": {"OBJECT_NAME": "STARLINK-35372", "OBJECT_ID": "2025-262W", "EPOCH": "2025-12-12T14:32:19.822272", "MEAN_MOTION": 15.50958906, "ECCENTRICITY": 0.00239183, "INCLINATION": 43.0006, "RA_OF_ASC_NODE": 71.8125, "ARG_OF_PERICENTER": 267.4659, "MEAN_ANOMALY": 92.3463, "EPHEMERIS_TYPE": 0, "CLASSIFICATION_TYPE": "U", "NORAD_CAT_ID": 66476, "ELEMENT_SET_NO": 999, "REV_AT_EPOCH": 543, "BSTAR": 0.0022723739, "MEAN_MOTION_DOT": 0.00138743, "MEAN_MOTION_DDOT": 0}, "tle": {"line1": "1 66476U 25262W   25346.60578498  .00138743  00000+0  22724-2 0  9997", "line2": "2 66476  43.0006  71.8125 0023918 267.4659  92.3463 15.50958906  5437"}}, "geometry": {"type": "Point", "coordinates": [135.01748979120757, 41.08193632971335]}}, {"type": "Feature", "properties": {"norad_id": 66477, "name": "STARLINK-35354", "group": "last-30-days", "lat": 42.19276993333912, "lon": 142.29366257016633, "alt_km": 406.87212239974724, "timestamp": "2025-12-13T15:35:10.875242+00:00", "meta": {"OBJECT_NAME": "STARLINK-35354", "OBJECT_ID": "2025-262X", "EPOCH": "2025-12-12T14:31:15.560544", "MEAN_MOTION": 15.51223996, "ECCENTRICITY": 0.00035747, "INCLINATION": 43.0004, "RA_OF_ASC_NODE": 71.8056, "ARG_OF_PERICENTER": 301.0265, "MEAN_ANOMALY": 59.0244, "EPHEMERIS_TYPE": 0, "CLASSIFICATION_TYPE": "U", "NORAD_CAT_ID": 66477, "ELEMENT_SET_NO": 999, "REV_AT_EPOCH": 554, "BSTAR": 0.0031918459, "MEAN_MOTION_DOT": 0.00196158, "MEAN_MOTION_DDOT": 0}, "tle": {"line1": "1 66477U 25262X   25346.60504121  .00196158  00000+0  31918-2 0  9999", "line2": "2 66477  43.0004  71.8056 0003574 301.0265  59.0244 15.51223996  5547"}}, "geometry": {"type": "Point", "coordinates": [142.29366257016633, 42.19276993333912]}}, {"type": "Feature", "properties": {"norad_id": 66478, "name": "STARLINK-35283", "group": "last-30-days", "lat": 42.49476300679645, "lon": 145.1498552092023, "alt_km": 406.5507102982947, "timestamp": "2025-12-13T15:35:10.875252+00:00", "meta": {"OBJECT_NAME": "STARLINK-35283", "OBJECT_ID": "2025-262Y", "EPOCH": "2025-12-12T12:58:00.522912", "MEAN_MOTION": 15.51222697, "ECCENTRICITY": 0.00023418, "INCLINATION": 43.0003, "RA_OF_ASC_NODE": 72.1778, "ARG_OF_PERICENTER": 281.5101, "MEAN_ANOMALY": 78.5496, "EPHEMERIS_TYPE": 0, "CLASSIFICATION_TYPE": "U", "NORAD_CAT_ID": 66478, "ELEMENT_SET_NO": 999, "REV_AT_EPOCH": 553, "BSTAR": 0.0031433488, "MEAN_MOTION_DOT": 0.00193071, "MEAN_MOTION_DDOT": 0}, "tle": {"line1": "1 66478U 25262Y   25346.54028383  .00193071  00000+0  31433-2 0  9997", "line2": "2 66478  43.0003  72.1778 0002341 281.5101  78.5496 15.51222697  5535"}}, "geometry": {"type": "Point", "coordinates": [145.1498552092023, 42.49476300679645]}}, {"type": "Feature", "properties": {"norad_id": 66479, "name": "STARLINK-35581", "group": "last-30-days", "lat": 41.24460628363976, "lon": 135.90739861707212, "alt_km": 403.4127160018679, "timestamp": "2025-12-13T15:35:10.875262+00:00", "meta": {"OBJECT_NAME": "STARLINK-35581", "OBJECT_ID": "2025-262Z", "EPOCH": "2025-12-12T22:15:49.912128", "MEAN_MOTION": 15.50939138, "ECCENTRICITY": 0.00099564, "INCLINATION": 43.0004, "RA_OF_ASC_NODE": 69.926, "ARG_OF_PERICENTER": 10.0695, "MEAN_ANOMALY": 350.0364, "EPHEMERIS_TYPE": 0, "CLASSIFICATION_TYPE": "U", "NORAD_CAT_ID": 66479, "ELEMENT_SET_NO": 999, "REV_AT_EPOCH": 559, "BSTAR": 0.0028073661, "MEAN_MOTION_DOT": 0.00170434, "MEAN_MOTION_DDOT": 0}, "tle": {"line1": "1 66479U 25262Z   25346.92766102  .00170434  00000+0  28074-2 0  9993", "line2": "2 66479  43.0004  69.9260 0009956  10.0695 350.0364 15.50939138  5591"}}, "geometry": {"type": "Point", "coordinates": [135.90739861707212, 41.24460628363976]}}, {"type": "Feature", "properties": {"norad_id": 66480, "name": "STARLINK-35670", "group": "last-30-days", "lat": 42.06292799879271, "lon": 141.25154152319345, "alt_km": 408.47606769785034, "timestamp": "2025-12-13T15:35:10.875273+00:00", "meta": {"OBJECT_NAME": "STARLINK-35670", "OBJECT_ID": "2025-262AA", "EPOCH": "2025-12-12T22:14:32.372448", "MEAN_MOTION": 15.5064621, "ECCENTRICITY": 0.00015097, "INCLINATION": 42.9994, "RA_OF_ASC_NODE": 69.9199, "ARG_OF_PERICENTER": 277.5365, "MEAN_ANOMALY": 82.5323, "EPHEMERIS_TYPE": 0, "CLASSIFICATION_TYPE": "U", "NORAD_CAT_ID": 66480, "ELEMENT_SET_NO": 999, "REV_AT_EPOCH": 559, "BSTAR": 0.0024120974, "MEAN_MOTION_DOT": 0.00144145, "MEAN_MOTION_DDOT": 0}, "tle": {"line1": "1 66480U 25262AA  25346.92676357  .00144145  00000+0  24121-2 0  9996", "line2": "2 66480  42.9994  69.9199 0001509 277.5365  82.5323 15.50646210  5598"}}, "geometry": {"type": "Point", "coordinates": [141.25154152319345, 42.06292799879271]}}, {"type": "Feature", "properties": {"norad_id": 66481, "name": "STARLINK-35698", "group": "last-30-days", "lat": 42.348803689712845, "lon": 143.68677883258152, "alt_km": 408.9819025273646, "timestamp": "2025-12-13T15:35:10.875283+00:00", "meta": {"OBJECT_NAME": "STARLINK-35698", "OBJECT_ID": "2025-262AB", "EPOCH": "2025-12-12T22:14:02.415840", "MEAN_MOTION": 15.50637253, "ECCENTRICITY": 0.00019586, "INCLINATION": 42.9999, "RA_OF_ASC_NODE": 69.9158, "ARG_OF_PERICENTER": 271.5353, "MEAN_ANOMALY": 88.5283, "EPHEMERIS_TYPE": 0, "CLASSIFICATION_TYPE": "U", "NORAD_CAT_ID": 66481, "ELEMENT_SET_NO": 999, "REV_AT_EPOCH": 559, "BSTAR": 0.0016894487, "MEAN_MOTION_DOT": 0.00100259, "MEAN_MOTION_DDOT": 0}, "tle": {"line1": "1 66481U 25262AB  25346.92641685  .00100259  00000+0  16894-2 0  9999", "line2": "2 66481  42.9999  69.9158 0001958 271.5353  88.5283 15.50637253  5596"}}, "geometry": {"type": "Point", "coordinates": [143.68677883258152, 42.348803689712845]}}, {"type": "Feature", "properties": {"norad_id": 66482, "name": "STARLINK-35648", "group": "last-30-days", "lat": 42.61041429008834, "lon": 146.478014466335, "alt_km": 408.8737428693439, "timestamp": "2025-12-13T15:35:10.875293+00:00", "meta": {"OBJECT_NAME": "STARLINK-35648", "OBJECT_ID": "2025-262AC", "EPOCH": "2025-12-12T14:29:46.171968", "MEAN_MOTION": 15.50598416, "ECCENTRICITY": 0.00021564, "INCLINATION": 43.0007, "RA_OF_ASC_NODE": 71.796, "ARG_OF_PERICENTER": 270.5345, "MEAN_ANOMALY": 89.5268, "EPHEMERIS_TYPE": 0, "CLASSIFICATION_TYPE": "U", "NORAD_CAT_ID": 66482, "ELEMENT_SET_NO": 999, "REV_AT_EPOCH": 538, "BSTAR": 0.0020139556, "MEAN_MOTION_DOT": 0.00119716, "MEAN_MOTION_DDOT": 0}, "tle": {"line1": "1 66482U 25262AC  25346.60400662  .00119716  00000+0  20140-2 0  9990", "line2": "2 66482  43.0007  71.7960 0002156 270.5345  89.5268 15.50598416  5380"}}, "geometry": {"type": "Point", "coordinates": [146.478014466335, 42.61041429008834]}}, {"type": "Feature", "properties": {"norad_id": 66483, "name": "STARLINK-35654", "group": "last-30-days", "lat": 42.775819992946666, "lon": 148.82803337746688, "alt_km": 408.99551311647065, "timestamp": "2025-12-13T15:35:10.875303+00:00", "meta": {"OBJECT_NAME": "STARLINK-35654", "OBJECT_ID": "2025-262AD", "EPOCH": "2025-12-12T14:29:16.366560", "MEAN_MOTION": 15.50593052, "ECCENTRICITY": 0.00019289, "INCLINATION": 43.0006, "RA_OF_ASC_NODE": 71.7917, "ARG_OF_PERICENTER": 271.6407, "MEAN_ANOMALY": 88.4232, "EPHEMERIS_TYPE": 0, "CLASSIFICATION_TYPE": "U", "NORAD_CAT_ID": 66483, "ELEMENT_SET_NO": 999, "REV_AT_EPOCH": 554, "BSTAR": 0.0012716374, "MEAN_MOTION_DOT": 0.00075016, "MEAN_MOTION_DDOT": 0}, "tle": {"line1": "1 66483U 25262AD  25346.60366165  .00075016  00000+0  12716-2 0  9994", "line2": "2 66483  43.0006  71.7917 0001928 271.6407  88.4232 15.50593052  5547"}}, "geometry": {"type": "Point", "coordinates": [148.82803337746688, 42.775819992946666]}}]}